<kml xmlns="http://www.opengis.net/kml/2.2">
  <Document>
    <name>CultureConnect Venues</name>
    <Placemark>
      <name>Wintercircus - Arena, Gent</name>
      <Point>
        <coordinates>3.728,51.0481,0</coordinates>
      </Point>
    </Placemark>
    <Placemark>
      <name>Wintercircus - Bar, Gent</name>
      <Point>
        <coordinates>3.728,51.0481,0</coordinates>
      </Point>
    </Placemark>
    <Placemark>
      <name>Wintercircus - Club, Gent</name>
      <Point>
        <coordinates>3.7283,51.0487,0</coordinates>
      </Point>
    </Placemark>
    <Placemark>
      <name>Wintercircus, Gent</name>
      <Point>
        <coordinates>3.728,51.0481,0</coordinates>
      </Point>
    </Placemark>
    <Placemark>
      <name>Wintercircus - Expo, Gent</name>
      <Point>
        <coordinates>3.728,51.0481,0</coordinates>
      </Point>
    </Placemark>
    <Placemark>
      <name>De Zwerver</name>
      <Point>
        <coordinates>2.7655,51.1307,0</coordinates>
      </Point>
    </Placemark>
    <Placemark>
      <name>Café De Zwerver</name>
      <Point>
        <coordinates>4.4699,50.5039,0</coordinates>
      </Point>
    </Placemark>
    <Placemark>
      <name>muziekclub N9</name>
      <Point>
        <coordinates>3.57,51.1877,0</coordinates>
      </Point>
    </Placemark>
    <Placemark>
      <name>Mottekasteel Hoge Wal</name>
      <Point>
        <coordinates>3.7408702,51.1710025,0</coordinates>
      </Point>
    </Placemark>
    <Placemark>
      <name>N9 fabriek</name>
      <Point>
        <coordinates>4.903,51.1808,0</coordinates>
      </Point>
    </Placemark>
    <Placemark>
      <name>Huysmanhoeve</name>
      <Point>
        <coordinates>3.5755,51.2027,0</coordinates>
      </Point>
    </Placemark>
    <Placemark>
      <name>Helden in het Park</name>
      <Point>
        <coordinates>4.4699,50.5039,0</coordinates>
      </Point>
    </Placemark>
    <Placemark>
      <name>Herbakkersfestival</name>
      <Point>
        <coordinates>3.5815,51.1842,0</coordinates>
      </Point>
    </Placemark>
    <Placemark>
      <name>Cultuurhuis Herbakker</name>
      <Point>
        <coordinates>3.5634,51.1868,0</coordinates>
      </Point>
    </Placemark>
    <Placemark>
      <name>CC Evergem</name>
      <Point>
        <coordinates>3.7079,51.1088,0</coordinates>
      </Point>
    </Placemark>
    <Placemark>
      <name>De Casino</name>
      <Point>
        <coordinates>4.1422,51.1692,0</coordinates>
      </Point>
    </Placemark>
    <Placemark>
      <name>De Vooruit Concertzaal</name>
      <Point>
        <coordinates>3.7274,51.0477,0</coordinates>
      </Point>
    </Placemark>
    <Placemark>
      <name>Club Wintercircus</name>
      <Point>
        <coordinates>3.7283,51.0487,0</coordinates>
      </Point>
    </Placemark>
    <Placemark>
      <name>Plantentuin</name>
      <Point>
        <coordinates>4.4065,51.2144,0</coordinates>
      </Point>
    </Placemark>
    <Placemark>
      <name>Ha Concerts</name>
      <Point>
        <coordinates>3.7233,51.0499,0</coordinates>
      </Point>
    </Placemark>
    <Placemark>
      <name>PlantentuinUitverkocht</name>
      <Point>
        <coordinates>4.4699,50.5039,0</coordinates>
      </Point>
    </Placemark>
    <Placemark>
      <name>Minard SchouwburgLaatste tickets!</name>
      <Point>
        <coordinates>4.4699,50.5039,0</coordinates>
      </Point>
    </Placemark>
    <Placemark>
      <name>Trefpunt</name>
      <Point>
        <coordinates>4.594,51.3962,0</coordinates>
      </Point>
    </Placemark>
    <Placemark>
      <name>Club WintercircusNieuwe datum</name>
      <Point>
        <coordinates>4.4699,50.5039,0</coordinates>
      </Point>
    </Placemark>
    <Placemark>
      <name>De Centrale</name>
      <Point>
        <coordinates>4.445,51.213,0</coordinates>
      </Point>
    </Placemark>
    <Placemark>
      <name>Club WintercircusUitverkocht</name>
      <Point>
        <coordinates>4.4699,50.5039,0</coordinates>
      </Point>
    </Placemark>
    <Placemark>
      <name>Charlatan</name>
      <Point>
        <coordinates>3.7284,51.056,0</coordinates>
      </Point>
    </Placemark>
    <Placemark>
      <name>Minard SchouwburgUitverkocht</name>
      <Point>
        <coordinates>4.4699,50.5039,0</coordinates>
      </Point>
    </Placemark>
    <Placemark>
      <name>De Vooruit ConcertzaalUitverkocht</name>
      <Point>
        <coordinates>3.7274,51.0477,0</coordinates>
      </Point>
    </Placemark>
    <Placemark>
      <name>Kunsthal Gent</name>
      <Point>
        <coordinates>3.7218,51.0588,0</coordinates>
      </Point>
    </Placemark>
    <Placemark>
      <name>Ha ConcertsUitverkocht</name>
      <Point>
        <coordinates>4.4699,50.5039,0</coordinates>
      </Point>
    </Placemark>
    <Placemark>
      <name>Club WintercircusReleaseconcert</name>
      <Point>
        <coordinates>4.4699,50.5039,0</coordinates>
      </Point>
    </Placemark>
    <Placemark>
      <name>Ha ConcertsNieuwe datum</name>
      <Point>
        <coordinates>4.4699,50.5039,0</coordinates>
      </Point>
    </Placemark>
    <Placemark>
      <name>Minard Schouwburg</name>
      <Point>
        <coordinates>4.4699,50.5039,0</coordinates>
      </Point>
    </Placemark>
    <Placemark>
      <name>De Vooruit Theaterzaal</name>
      <Point>
        <coordinates>3.7274,51.0477,0</coordinates>
      </Point>
    </Placemark>
    <Placemark>
      <name>De Vooruit ConcertzaalLaatste tickets!</name>
      <Point>
        <coordinates>3.7274,51.0477,0</coordinates>
      </Point>
    </Placemark>
    <Placemark>
      <name>Muziekclub 4AD</name>
      <Point>
        <coordinates>2.86,51.0343,0</coordinates>
      </Point>
    </Placemark>
    <Placemark>
      <name>De IJzerboomgaard</name>
      <Point>
        <coordinates>2.8520984,51.0258957,0</coordinates>
      </Point>
    </Placemark>
    <Placemark>
      <name>Sint-Lievens-Houtem</name>
      <Point>
        <coordinates>3.8589,50.9205,0</coordinates>
      </Point>
    </Placemark>
    <Placemark>
      <name>Cultuurhuis EMotia</name>
      <Point>
        <coordinates>3.9453,50.9226,0</coordinates>
      </Point>
    </Placemark>
    <Placemark>
      <name>AB Concerts, Brussels</name>
      <Point>
        <coordinates>4.3488,50.8473,0</coordinates>
      </Point>
    </Placemark>
    <Placemark>
      <name>OLT Rivierenhof</name>
      <Point>
        <coordinates>4.4707,51.2151,0</coordinates>
      </Point>
    </Placemark>
    <Placemark>
      <name>Botanique, Brussels</name>
      <Point>
        <coordinates>4.3662,50.8531,0</coordinates>
      </Point>
    </Placemark>
    <Placemark>
      <name>Het Depot, Leuven</name>
      <Point>
        <coordinates>4.7138,50.8815,0</coordinates>
      </Point>
    </Placemark>
    <Placemark>
      <name>Muziekcentrum Track</name>
      <Point>
        <coordinates>3.2613,50.825,0</coordinates>
      </Point>
    </Placemark>
    <Placemark>
      <name>Muziekcentrum Track &amp;amp; De Kreun</name>
      <Point>
        <coordinates>3.2613,50.825,0</coordinates>
      </Point>
    </Placemark>
    <Placemark>
      <name>De Kreun</name>
      <Point>
        <coordinates>3.2616,50.8244,0</coordinates>
      </Point>
    </Placemark>
    <Placemark>
      <name>DAK De Kreun</name>
      <Point>
        <coordinates>4.4699,50.5039,0</coordinates>
      </Point>
    </Placemark>
    <Placemark>
      <name>Bolwerk</name>
      <Point>
        <coordinates>3.3827,50.6133,0</coordinates>
      </Point>
    </Placemark>
    <Placemark>
      <name>Kerk Sint-Denijs</name>
      <Point>
        <coordinates>3.3687,50.7512,0</coordinates>
      </Point>
    </Placemark>
    <Placemark>
      <name>Conservatoriumpark</name>
      <Point>
        <coordinates>3.2599,50.825,0</coordinates>
      </Point>
    </Placemark>
    <Placemark>
      <name>HOF</name>
      <Point>
        <coordinates>5.9997,50.7095,0</coordinates>
      </Point>
    </Placemark>
    <Placemark>
      <name>Concertstudio</name>
      <Point>
        <coordinates>3.2607,50.8251,0</coordinates>
      </Point>
    </Placemark>
    <Placemark>
      <name>Depart</name>
      <Point>
        <coordinates>3.2533,50.8259,0</coordinates>
      </Point>
    </Placemark>
    <Placemark>
      <name>Schouwburg Kortrijk</name>
      <Point>
        <coordinates>3.2667,50.8261,0</coordinates>
      </Point>
    </Placemark>
    <Placemark>
      <name>De Kreun Café</name>
      <Point>
        <coordinates>3.2617,50.8249,0</coordinates>
      </Point>
    </Placemark>
    <Placemark>
      <name>Zwembad Kuurne</name>
      <Point>
        <coordinates>3.2715,50.8534,0</coordinates>
      </Point>
    </Placemark>
    <Placemark>
      <name>De Roma</name>
      <Point>
        <coordinates>4.4400144,51.2133885,0</coordinates>
      </Point>
    </Placemark>
    <Placemark>
      <name>Trix</name>
      <Point>
        <coordinates>4.443686,51.225503,0</coordinates>
      </Point>
    </Placemark>
    <Placemark>
      <name>Genk</name>
      <Point>
        <coordinates>5.5001,50.9655,0</coordinates>
      </Point>
    </Placemark>
    <Placemark>
      <name>Molenbeek, Brussels</name>
      <Point>
        <coordinates>4.3511,50.8815,0</coordinates>
      </Point>
    </Placemark>
    <Placemark>
      <name>Cactus Club</name>
      <Point>
        <coordinates>3.2257,51.1966,0</coordinates>
      </Point>
    </Placemark>
    <Placemark>
      <name>Cactus Cafe</name>
      <Point>
        <coordinates>3.2262,51.1966,0</coordinates>
      </Point>
    </Placemark>
    <Placemark>
      <name>House of Time</name>
      <Point>
        <coordinates>4.4049,50.7101,0</coordinates>
      </Point>
    </Placemark>
    <Placemark>
      <name>Binnenplein Gruuthuse</name>
      <Point>
        <coordinates>4.4429,51.19,0</coordinates>
      </Point>
    </Placemark>
    <Placemark>
      <name>Burg</name>
      <Point>
        <coordinates>6.1343,50.1967,0</coordinates>
      </Point>
    </Placemark>
    <Placemark>
      <name>Brugse Binnenstad</name>
      <Point>
        <coordinates>3.2251,51.2085,0</coordinates>
      </Point>
    </Placemark>
    <Placemark>
      <name>Cactus Caf&amp;eacute; + Cactus Club</name>
      <Point>
        <coordinates>4.4699,50.5039,0</coordinates>
      </Point>
    </Placemark>
    <Placemark>
      <name>Stadsschouwburg Brugge</name>
      <Point>
        <coordinates>3.2236,51.2105,0</coordinates>
      </Point>
    </Placemark>
    <Placemark>
      <name>Water en Vuur</name>
      <Point>
        <coordinates>2.8645,51.0363,0</coordinates>
      </Point>
    </Placemark>
    <Placemark>
      <name>Theater Vooruit, Boechout</name>
      <Point>
        <coordinates>4.4907,51.1587,0</coordinates>
      </Point>
    </Placemark>
    <Placemark>
      <name>Leietheater, Deinze</name>
      <Point>
        <coordinates>3.5246,50.9819,0</coordinates>
      </Point>
    </Placemark>
    <Placemark>
      <name>Bourlaschouwburg, Antwerpen</name>
      <Point>
        <coordinates>4.4073,51.216,0</coordinates>
      </Point>
    </Placemark>
    <Placemark>
      <name>Schouwburg, Amstelveen</name>
      <Point>
        <coordinates>4.4699,50.5039,0</coordinates>
      </Point>
    </Placemark>
    <Placemark>
      <name>Shanghai Modern Drama Valley Theatre Festival / Daning Theatre, Shanghai</name>
      <Point>
        <coordinates>121.4737,31.2304,0</coordinates>
      </Point>
    </Placemark>
    <Placemark>
      <name>HNT/Koninklijke Schouwburg, Den Haag</name>
      <Point>
        <coordinates>4.4699,50.5039,0</coordinates>
      </Point>
    </Placemark>
    <Placemark>
      <name>De Brakke Grond/Grote zaal, Amsterdam</name>
      <Point>
        <coordinates>4.8938,52.3712,0</coordinates>
      </Point>
    </Placemark>
    <Placemark>
      <name>Expozaal, Turnhout</name>
      <Point>
        <coordinates>4.9373,51.3216,0</coordinates>
      </Point>
    </Placemark>
    <Placemark>
      <name>Kunstfestspiele Herrenhausen, Hannover</name>
      <Point>
        <coordinates>4.4699,50.5039,0</coordinates>
      </Point>
    </Placemark>
    <Placemark>
      <name>Ruhrtriënnale, Maschinenhalle, Gladbeck</name>
      <Point>
        <coordinates>4.4699,50.5039,0</coordinates>
      </Point>
    </Placemark>
    <Placemark>
      <name>VIERNULVIER/Domzaal, Gent</name>
      <Point>
        <coordinates>3.7274,51.0477,0</coordinates>
      </Point>
    </Placemark>
    <Placemark>
      <name>BOL, Brussel</name>
      <Point>
        <coordinates>4.3599,50.8405,0</coordinates>
      </Point>
    </Placemark>
    <Placemark>
      <name>Woluwe</name>
      <Point>
        <coordinates>4.4461,50.8555,0</coordinates>
      </Point>
    </Placemark>
    <Placemark>
      <name>Théâtre du Châtelet, Paris 01 Louvre</name>
      <Point>
        <coordinates>2.3463,48.8577,0</coordinates>
      </Point>
    </Placemark>
    <Placemark>
      <name>Kambala, Kambalastraat 1, Antwerpen</name>
      <Point>
        <coordinates>4.4101,51.2381,0</coordinates>
      </Point>
    </Placemark>
    <Placemark>
      <name>Dailes Theatre, Riga</name>
      <Point>
        <coordinates>24.1056,56.9677,0</coordinates>
      </Point>
    </Placemark>
    <Placemark>
      <name>Op locatie, Antwerpen</name>
      <Point>
        <coordinates>4.415,51.2199,0</coordinates>
      </Point>
    </Placemark>
    <Placemark>
      <name>De Grote Post, Oostende</name>
      <Point>
        <coordinates>2.9161,51.23,0</coordinates>
      </Point>
    </Placemark>
    <Placemark>
      <name>BOX, Brussel</name>
      <Point>
        <coordinates>4.3687,50.8245,0</coordinates>
      </Point>
    </Placemark>
    <Placemark>
      <name>CC Brugge/Stadsschouwburg, Brugge</name>
      <Point>
        <coordinates>3.2239,51.2106,0</coordinates>
      </Point>
    </Placemark>
    <Placemark>
      <name>Rode Zaal deSingel, Antwerpen</name>
      <Point>
        <coordinates>4.3986,51.2205,0</coordinates>
      </Point>
    </Placemark>
    <Placemark>
      <name>Festspielhaus, Sankt Pölten</name>
      <Point>
        <coordinates>15.6307,48.2045,0</coordinates>
      </Point>
    </Placemark>
    <Placemark>
      <name>Bever</name>
      <Point>
        <coordinates>3.9317,50.7113,0</coordinates>
      </Point>
    </Placemark>
    <Placemark>
      <name>NTGent/Minard, Gent</name>
      <Point>
        <coordinates>3.7273,51.0489,0</coordinates>
      </Point>
    </Placemark>
    <Placemark>
      <name>H. Hartkerk, Boom</name>
      <Point>
        <coordinates>4.3684,51.0998,0</coordinates>
      </Point>
    </Placemark>
    <Placemark>
      <name>CLUB Stadhuis, Mortsel</name>
      <Point>
        <coordinates>4.4457,51.1727,0</coordinates>
      </Point>
    </Placemark>
    <Placemark>
      <name>Brasschaat CC, Brasschaat</name>
      <Point>
        <coordinates>4.5136,51.3098,0</coordinates>
      </Point>
    </Placemark>
    <Placemark>
      <name>Theater Kikker, Utrecht</name>
      <Point>
        <coordinates>4.4699,50.5039,0</coordinates>
      </Point>
    </Placemark>
    <Placemark>
      <name>Centro Cultural de Belém, Lissabon</name>
      <Point>
        <coordinates>4.4699,50.5039,0</coordinates>
      </Point>
    </Placemark>
    <Placemark>
      <name>Schouwburg Kortrijk, Kortrijk</name>
      <Point>
        <coordinates>3.2667,50.8261,0</coordinates>
      </Point>
    </Placemark>
    <Placemark>
      <name>Theater Malpertuis, Tielt</name>
      <Point>
        <coordinates>3.3263,50.9934,0</coordinates>
      </Point>
    </Placemark>
    <Placemark>
      <name>NTGent/Schouwburg, Gent</name>
      <Point>
        <coordinates>3.7259,51.0536,0</coordinates>
      </Point>
    </Placemark>
    <Placemark>
      <name>CC De Spil, Roeselare</name>
      <Point>
        <coordinates>3.1248,50.9378,0</coordinates>
      </Point>
    </Placemark>
    <Placemark>
      <name>Les Théâtres de la Ville de Luxembourg, Luxemburg</name>
      <Point>
        <coordinates>5.4677,50.0547,0</coordinates>
      </Point>
    </Placemark>
    <Placemark>
      <name>mine/Kleine zaal, Genk</name>
      <Point>
        <coordinates>5.4906,50.9828,0</coordinates>
      </Point>
    </Placemark>
    <Placemark>
      <name>HNT/Theater aan het Spui, Den Haag</name>
      <Point>
        <coordinates>4.4699,50.5039,0</coordinates>
      </Point>
    </Placemark>
    <Placemark>
      <name>CC De Factorij, Zaventem</name>
      <Point>
        <coordinates>4.47,50.8843,0</coordinates>
      </Point>
    </Placemark>
    <Placemark>
      <name>Chassé Theater, Breda</name>
      <Point>
        <coordinates>4.7822,51.5875,0</coordinates>
      </Point>
    </Placemark>
    <Placemark>
      <name>Kunstencentrum Buda, Kortrijk</name>
      <Point>
        <coordinates>3.2647,50.8306,0</coordinates>
      </Point>
    </Placemark>
    <Placemark>
      <name>De Brakke Grond, Amsterdam</name>
      <Point>
        <coordinates>4.9041,52.3676,0</coordinates>
      </Point>
    </Placemark>
    <Placemark>
      <name>Warande/Schouwburg, Turnhout</name>
      <Point>
        <coordinates>5.0105,51.311,0</coordinates>
      </Point>
    </Placemark>
    <Placemark>
      <name>VIERNULVIER/Theaterzaal, Gent</name>
      <Point>
        <coordinates>3.7274,51.0477,0</coordinates>
      </Point>
    </Placemark>
    <Placemark>
      <name>CC Ter Vesten, Beveren</name>
      <Point>
        <coordinates>4.2624,51.2132,0</coordinates>
      </Point>
    </Placemark>
    <Placemark>
      <name>Cultuurhuis De Werf, Aalst</name>
      <Point>
        <coordinates>4.0421,50.9392,0</coordinates>
      </Point>
    </Placemark>
    <Placemark>
      <name>De Foyer, Antwerpen</name>
      <Point>
        <coordinates>4.4069,51.216,0</coordinates>
      </Point>
    </Placemark>
    <Placemark>
      <name>Concertgebouw, Brugge</name>
      <Point>
        <coordinates>3.2185,51.2039,0</coordinates>
      </Point>
    </Placemark>
    <Placemark>
      <name>LUX, Nijmegen</name>
      <Point>
        <coordinates>4.4699,50.5039,0</coordinates>
      </Point>
    </Placemark>
    <Placemark>
      <name>Theater De Nieuwe Vorst, Tilburg</name>
      <Point>
        <coordinates>5.0864,51.557,0</coordinates>
      </Point>
    </Placemark>
    <Placemark>
      <name>30CC/Schouwburg, Leuven</name>
      <Point>
        <coordinates>4.7048,50.8798,0</coordinates>
      </Point>
    </Placemark>
    <Placemark>
      <name>Stadsschouwburg Utrecht, Utrecht</name>
      <Point>
        <coordinates>4.4699,50.5039,0</coordinates>
      </Point>
    </Placemark>
    <Placemark>
      <name>Theater Rotterdam, Rotterdam</name>
      <Point>
        <coordinates>4.4699,50.5039,0</coordinates>
      </Point>
    </Placemark>
    <Placemark>
      <name>CC De Steiger, Menen</name>
      <Point>
        <coordinates>3.125,50.7929,0</coordinates>
      </Point>
    </Placemark>
    <Placemark>
      <name>Theater Aan Zee, Oostende</name>
      <Point>
        <coordinates>2.9157,51.2299,0</coordinates>
      </Point>
    </Placemark>
    <Placemark>
      <name>Edinburgh International Festival/Studio Theatre, Edinburgh</name>
      <Point>
        <coordinates>-3.1883,55.9533,0</coordinates>
      </Point>
    </Placemark>
    <Placemark>
      <name>De Expeditie (Gent)</name>
      <Point>
        <coordinates>3.7308,51.0656,0</coordinates>
      </Point>
    </Placemark>
    <Placemark>
      <name>Theater Arsenaal (Mechelen)</name>
      <Point>
        <coordinates>4.4847511,51.0224013,0</coordinates>
      </Point>
    </Placemark>
    <Placemark>
      <name>Theater Aan Zee (Oostende)</name>
      <Point>
        <coordinates>2.9157,51.2299,0</coordinates>
      </Point>
    </Placemark>
    <Placemark>
      <name>CC Zoetegem (Zottegem)</name>
      <Point>
        <coordinates>3.8126,50.8698,0</coordinates>
      </Point>
    </Placemark>
    <Placemark>
      <name>Centrum Ysara (Nieuwpoort)</name>
      <Point>
        <coordinates>2.7239,51.1498,0</coordinates>
      </Point>
    </Placemark>
    <Placemark>
      <name>CC De Spil (Roeselare)</name>
      <Point>
        <coordinates>3.1248,50.9378,0</coordinates>
      </Point>
    </Placemark>
    <Placemark>
      <name>Anzegem (Theaterzaal Gemeentepunt)</name>
      <Point>
        <coordinates>3.4289,50.8435,0</coordinates>
      </Point>
    </Placemark>
    <Placemark>
      <name>Theatercentrum Zwevegem</name>
      <Point>
        <coordinates>3.3351,50.8122,0</coordinates>
      </Point>
    </Placemark>
    <Placemark>
      <name>OC Leieland (Wielsbeke)</name>
      <Point>
        <coordinates>3.3288,50.8975,0</coordinates>
      </Point>
    </Placemark>
    <Placemark>
      <name>OC De Kleine Beer (Beernem)</name>
      <Point>
        <coordinates>3.3328,51.1408,0</coordinates>
      </Point>
    </Placemark>
    <Placemark>
      <name>Voerens Amateur Toneel</name>
      <Point>
        <coordinates>5.8154,50.7477,0</coordinates>
      </Point>
    </Placemark>
    <Placemark>
      <name>Cultuurhuis c o r s o (Berchem)</name>
      <Point>
        <coordinates>4.4224,51.197,0</coordinates>
      </Point>
    </Placemark>
    <Placemark>
      <name>CC De Steiger (Menen)</name>
      <Point>
        <coordinates>3.125,50.7929,0</coordinates>
      </Point>
    </Placemark>
    <Placemark>
      <name>Kunstencentrum nona (Mechelen)</name>
      <Point>
        <coordinates>4.4776,51.0276,0</coordinates>
      </Point>
    </Placemark>
    <Placemark>
      <name>CC Diest (Diest)</name>
      <Point>
        <coordinates>5.0398,50.9884,0</coordinates>
      </Point>
    </Placemark>
    <Placemark>
      <name>CC De Leest (Izegem)</name>
      <Point>
        <coordinates>3.2047,50.9125,0</coordinates>
      </Point>
    </Placemark>
    <Placemark>
      <name>CC De Velinx (Tongeren)</name>
      <Point>
        <coordinates>5.4621,50.7754,0</coordinates>
      </Point>
    </Placemark>
    <Placemark>
      <name>CC Gildhof (Tielt)</name>
      <Point>
        <coordinates>3.322,50.9972,0</coordinates>
      </Point>
    </Placemark>
    <Placemark>
      <name>30 CC (Leuven)</name>
      <Point>
        <coordinates>4.7012,50.8792,0</coordinates>
      </Point>
    </Placemark>
    <Placemark>
      <name>GC 't Blikveld (Bonheiden)</name>
      <Point>
        <coordinates>4.5481,51.0251,0</coordinates>
      </Point>
    </Placemark>
    <Placemark>
      <name>De Expeditie (Gent) - Try-out</name>
      <Point>
        <coordinates>3.7309,51.0657,0</coordinates>
      </Point>
    </Placemark>
    <Placemark>
      <name>De Grote Post (Oostende)</name>
      <Point>
        <coordinates>2.916,51.23,0</coordinates>
      </Point>
    </Placemark>
    <Placemark>
      <name>Cultuurhuis Belgica (Dendermonde)</name>
      <Point>
        <coordinates>4.0975,51.0317,0</coordinates>
      </Point>
    </Placemark>
    <Placemark>
      <name>Cultuurcentrum Evergem</name>
      <Point>
        <coordinates>3.6765,51.1302,0</coordinates>
      </Point>
    </Placemark>
    <Placemark>
      <name>CC Sint-Niklaas</name>
      <Point>
        <coordinates>4.1395,51.1647,0</coordinates>
      </Point>
    </Placemark>
    <Placemark>
      <name>Liers Cultuurcentrum</name>
      <Point>
        <coordinates>4.5756,51.1249,0</coordinates>
      </Point>
    </Placemark>
    <Placemark>
      <name>CC De Fabriek (Sint-Lievens-Houtem)</name>
      <Point>
        <coordinates>3.8628,50.9202,0</coordinates>
      </Point>
    </Placemark>
    <Placemark>
      <name>Leietheater (Deinze)</name>
      <Point>
        <coordinates>3.5246,50.9819,0</coordinates>
      </Point>
    </Placemark>
    <Placemark>
      <name>CC De Bogaard (Sint-Truiden)</name>
      <Point>
        <coordinates>5.1871,50.8134,0</coordinates>
      </Point>
    </Placemark>
    <Placemark>
      <name>CC De Schakel (Waregem)</name>
      <Point>
        <coordinates>3.4324,50.8846,0</coordinates>
      </Point>
    </Placemark>
    <Placemark>
      <name>CC Ter Dilft (Bornem)</name>
      <Point>
        <coordinates>4.2312,51.0942,0</coordinates>
      </Point>
    </Placemark>
    <Placemark>
      <name>CC Scharpoord (Knokke Heist)</name>
      <Point>
        <coordinates>3.2801,51.3437,0</coordinates>
      </Point>
    </Placemark>
    <Placemark>
      <name>CC De Werf (Aalst)</name>
      <Point>
        <coordinates>4.0421,50.9392,0</coordinates>
      </Point>
    </Placemark>
    <Placemark>
      <name>Schouwburg Noord (Merksem)</name>
      <Point>
        <coordinates>4.4379,51.2505,0</coordinates>
      </Point>
    </Placemark>
    <Placemark>
      <name>CC De Ploter (Ternat)</name>
      <Point>
        <coordinates>4.1555,50.8732,0</coordinates>
      </Point>
    </Placemark>
    <Placemark>
      <name>CC Het Gasthuis (Aarschot)</name>
      <Point>
        <coordinates>4.8394,50.9881,0</coordinates>
      </Point>
    </Placemark>
    <Placemark>
      <name>C-Mine (Genk)</name>
      <Point>
        <coordinates>5.4915,50.9833,0</coordinates>
      </Point>
    </Placemark>
    <Placemark>
      <name>CC de Brouckere (Torhout)</name>
      <Point>
        <coordinates>3.1012,51.0675,0</coordinates>
      </Point>
    </Placemark>
    <Placemark>
      <name>CC Ter Vesten (Beveren)</name>
      <Point>
        <coordinates>4.2624,51.2132,0</coordinates>
      </Point>
    </Placemark>
    <Placemark>
      <name>CC Het Perron (Ieper)</name>
      <Point>
        <coordinates>2.8761,50.8491,0</coordinates>
      </Point>
    </Placemark>
    <Placemark>
      <name>CC Wevelgem</name>
      <Point>
        <coordinates>3.1841,50.809,0</coordinates>
      </Point>
    </Placemark>
    <Placemark>
      <name>CC Hasselt</name>
      <Point>
        <coordinates>5.3378,50.9304,0</coordinates>
      </Point>
    </Placemark>
    <Placemark>
      <name>De Warande (Turnhout)</name>
      <Point>
        <coordinates>4.9434,51.3246,0</coordinates>
      </Point>
    </Placemark>
    <Placemark>
      <name>CC De Werft (Geel)</name>
      <Point>
        <coordinates>4.9855,51.1615,0</coordinates>
      </Point>
    </Placemark>
    <Placemark>
      <name>CC Nova (Wetteren)</name>
      <Point>
        <coordinates>3.8868,51.0065,0</coordinates>
      </Point>
    </Placemark>
    <Placemark>
      <name>Cultuurhuis Herbakker (Eeklo)</name>
      <Point>
        <coordinates>3.5632,51.1866,0</coordinates>
      </Point>
    </Placemark>
    <Placemark>
      <name>Compagnie Cecilia, Gent</name>
      <Point>
        <coordinates>3.7306,51.0657,0</coordinates>
      </Point>
    </Placemark>
    <Placemark>
      <name>CC De Borre (Bierbeek)</name>
      <Point>
        <coordinates>4.754,50.8273,0</coordinates>
      </Point>
    </Placemark>
    <Placemark>
      <name>CC Maasmechelen</name>
      <Point>
        <coordinates>5.696,50.9634,0</coordinates>
      </Point>
    </Placemark>
    <Placemark>
      <name>Westrand (Dilbeek)</name>
      <Point>
        <coordinates>4.2608,50.85,0</coordinates>
      </Point>
    </Placemark>
    <Placemark>
      <name>OPEK Leuven</name>
      <Point>
        <coordinates>4.7012,50.8874,0</coordinates>
      </Point>
    </Placemark>
    <Placemark>
      <name>Cultuurhuis De Brug (Zelzate)</name>
      <Point>
        <coordinates>3.7907,51.1981,0</coordinates>
      </Point>
    </Placemark>
    <Placemark>
      <name>CC 't Vondel (Halle)</name>
      <Point>
        <coordinates>4.2391,50.7362,0</coordinates>
      </Point>
    </Placemark>
    <Placemark>
      <name>CC Blankenberge (Blankenberge)</name>
      <Point>
        <coordinates>3.1337,51.317,0</coordinates>
      </Point>
    </Placemark>
    <Placemark>
      <name>Rock Werchter, Rotselaar</name>
      <Point>
        <coordinates>4.6866,50.9694,0</coordinates>
      </Point>
    </Placemark>
    <Placemark>
      <name>Pukkelpop, Kiewit</name>
      <Point>
        <coordinates>5.3491,50.9545,0</coordinates>
      </Point>
    </Placemark>
    <Placemark>
      <name>Fonnefeesten, Lokeren</name>
      <Point>
        <coordinates>3.9859,51.1053,0</coordinates>
      </Point>
    </Placemark>
    <Placemark>
      <name>Lokerse Feesten, Lokeren</name>
      <Point>
        <coordinates>3.9904,51.1066,0</coordinates>
      </Point>
    </Placemark>
    <Placemark>
      <name>Dour Festival, Dour</name>
      <Point>
        <coordinates>3.7745,50.4066,0</coordinates>
      </Point>
    </Placemark>
    <Placemark>
      <name>Ostend Beach, Oostende</name>
      <Point>
        <coordinates>2.9186,51.2363,0</coordinates>
      </Point>
    </Placemark>
    <Placemark>
      <name>De Steenoven, Herzele</name>
      <Point>
        <coordinates>3.8837,50.8858,0</coordinates>
      </Point>
    </Placemark>
    <Placemark>
      <name>GC De Kluize</name>
      <Point>
        <coordinates>3.7938,50.9414,0</coordinates>
      </Point>
    </Placemark>
    <Placemark>
      <name>Zottegem</name>
      <Point>
        <coordinates>3.8102686,50.8642312,0</coordinates>
      </Point>
    </Placemark>
    <Placemark>
      <name>Aalst</name>
      <Point>
        <coordinates>4.0392147,50.9383226,0</coordinates>
      </Point>
    </Placemark>
    <Placemark>
      <name>Merelbeke</name>
      <Point>
        <coordinates>3.7459,50.9943,0</coordinates>
      </Point>
    </Placemark>
    <Placemark>
      <name>Alsemberg</name>
      <Point>
        <coordinates>4.3323,50.7416,0</coordinates>
      </Point>
    </Placemark>
    <Placemark>
      <name>De Spil, Roeselare</name>
      <Point>
        <coordinates>3.126,50.9449,0</coordinates>
      </Point>
    </Placemark>
    <Placemark>
      <name>CC Brugge</name>
      <Point>
        <coordinates>3.2236,51.2105,0</coordinates>
      </Point>
    </Placemark>
    <Placemark>
      <name>CC Scharpoord</name>
      <Point>
        <coordinates>3.2801,51.3436,0</coordinates>
      </Point>
    </Placemark>
    <Placemark>
      <name>Leietheater</name>
      <Point>
        <coordinates>3.5246,50.9819,0</coordinates>
      </Point>
    </Placemark>
    <Placemark>
      <name>Harelbeke</name>
      <Point>
        <coordinates>3.3114,50.8575,0</coordinates>
      </Point>
    </Placemark>
  </Document>
</kml>